NORAD_CAT_ID,OBJECT_NAME,OBJECT_TYPE,EPOCH,MEAN_MOTION,ECCENTRICITY,INCLINATION,RA_OF_ASC_NODE,ARG_OF_PERICENTER,MEAN_ANOMALY,BSTAR,MEAN_MOTION_DOT,MEAN_MOTION_DDOT,TLE_LINE0,TLE_LINE1,TLE_LINE2,SEMIMAJOR_AXIS,PERIOD,APOGEE,PERIGEE,DECAYED
53275.0,STARLINK-4179,PAYLOAD,2022-08-08 06:00:00,15.73243144,0.0001868,53.2192,330.4831,327.9398,244.0947,-1.3104e-05,-2.463e-05,0.0,0 STARLINK-4179,1 53275U 22086AK  22220.25001157 -.00002463  00000-0 -13104-4 0  9999,2 53275  53.2192 330.4831 0001868 327.9398 244.0947 15.73243144  2941,6727.772,91.531,350.894,348.38,0.0
53275.0,STARLINK-4179,PAYLOAD,2022-08-08 14:00:01,15.73263932,0.0001992,53.2193,328.8355,339.6982,321.3858,-0.0005583999999999,-0.00078482,0.0,0 STARLINK-4179,1 53275U 22086AK  22220.58335648 -.00078482  00000-0 -55840-3 0  9996,2 53275  53.2193 328.8355 0001992 339.6982 321.3858 15.73263932  1307,6727.7130000000025,91.529,350.918,348.23800000000006,0.0
53275.0,STARLINK-4179,PAYLOAD,2022-08-08 22:00:00,15.732548800000002,0.0002054,53.2195,327.1856,347.3364,42.6663,-0.00072278,-0.00101095,0.0,0 STARLINK-4179,1 53275U 22086AK  22220.91667824 -.00101095  00000-0 -72278-3 0  9998,2 53275  53.2195 327.1856 0002054 347.3364  42.6663 15.73254880  1306,6727.739000000001,91.53,350.986,348.222,0.0
53275.0,STARLINK-4179,PAYLOAD,2022-08-09 04:00:00,15.73152684,0.0001834,53.2198,325.947,354.3439,12.3807,0.00010345,0.00013893,0.0,0 STARLINK-4179,1 53275U 22086AK  22221.16667824  .00013893  00000-0  10345-3 0  9999,2 53275  53.2198 325.9470 0001834 354.3439  12.3807 15.73152684  3083,6728.03,91.536,351.129,348.661,0.0
53275.0,STARLINK-4179,PAYLOAD,2022-08-09 14:00:01,15.73199828,0.0002158,53.2199,323.8873,6.6021,201.2134,-0.00081177,-0.00113043,0.0,0 STARLINK-4179,1 53275U 22086AK  22221.58334491 -.00113043  00000-0 -81177-3 0  9997,2 53275  53.2199 323.8873 0002158   6.6021 201.2134 15.73199828  1308,6727.896,91.533,351.213,348.309,0.0
53275.0,STARLINK-4179,PAYLOAD,2022-08-09 22:00:00,15.7311867,0.0002211999999999,53.2194,322.2374,12.6827,284.0229,-0.00028,-0.000396,0.0,0 STARLINK-4179,1 53275U 22086AK  22221.91667824 -.00039600  00000-0 -28000-3 0  9995,2 53275  53.2194 322.2374 0002212  12.6827 284.0229 15.73118670  3205,6728.127,91.538,351.48,348.504,0.0
53275.0,STARLINK-4179,PAYLOAD,2022-08-10 06:00:00,15.73093728,0.0002044999999999,53.2197,320.5871,17.4499,8.0696,0.00058278,0.00081597,0.0,0 STARLINK-4179,1 53275U 22086AK  22222.25001157  .00081597  00000-0  58278-3 0  9994,2 53275  53.2197 320.5871 0002045  17.4499   8.0696 15.73093728  3267,6728.198,91.539,351.439,348.68699999999984,0.0
53275.0,STARLINK-4179,PAYLOAD,2022-08-10 14:00:01,15.73124625,0.0002319999999999,53.2196,318.9402,15.7662,98.5701,0.00022931,0.00031581,0.0,0 STARLINK-4179,1 53275U 22086AK  22222.58334491  .00031581  00000-0  22931-3 0  9995,2 53275  53.2196 318.9402 0002320  15.7662  98.5701 15.73124625  1301,6728.11,91.538,351.536,348.414,0.0
53275.0,STARLINK-4179,PAYLOAD,2022-08-10 16:00:00,15.73111556,0.0002391,53.2199,318.5283,15.2229,211.3289,0.00053931,0.00075469,0.0,0 STARLINK-4179,1 53275U 22086AK  22222.66667824  .00075469  00000-0  53931-3 0  9990,2 53275  53.2199 318.5283 0002391  15.2229 211.3289 15.73111556  3328,6728.147,91.538,351.621,348.404,0.0
53275.0,STARLINK-4179,PAYLOAD,2022-08-10 22:00:00,15.73180406,0.0002336999999999,53.2198,317.2902,14.9662,188.2253,6.0468e-06,2.26e-06,0.0,0 STARLINK-4179,1 53275U 22086AK  22222.91667824  .00000226  00000-0  60468-5 0  9992,2 53275  53.2198 317.2902 0002337  14.9662 188.2253 15.73180406  1307,6727.951,91.534,351.38800000000015,348.244,0.0
53275.0,STARLINK-4179,PAYLOAD,2022-08-11 06:00:02,15.73203065,0.0002304,53.2176,315.6338,19.9953,272.3234,2.2168e-05,2.491e-05,0.0,0 STARLINK-4179,1 53275U 22086AK  22223.25002315  .00002491  00000-0  22168-4 0  9998,2 53275  53.2176 315.6338 0002304  19.9953 272.3234 15.73203065  3415,6727.886,91.533,351.302,348.201,0.0
53275.0,STARLINK-4179,PAYLOAD,2022-08-11 14:00:01,15.73205564,0.0002589,53.2177,313.9865,15.1262,6.0592,-1.7224e-05,-3.04e-05,0.0,0 STARLINK-4179,1 53275U 22086AK  22223.58334491 -.00003040  00000-0 -17224-4 0  9997,2 53275  53.2177 313.9865 0002589  15.1262   6.0592 15.73205564  1309,6727.879,91.533,351.486,348.00199999999984,0.0
53275.0,STARLINK-4179,PAYLOAD,2022-08-11 22:00:00,15.73172658,0.0002524,53.2195,312.3422,15.5239,94.4428,3.8958e-05,4.843e-05,0.0,0 STARLINK-4179,1 53275U 22086AK  22223.91667824  .00004843  00000-0  38958-4 0  9990,2 53275  53.2195 312.3422 0002524  15.5239  94.4428 15.73172658  3520,6727.973000000001,91.535,351.536,348.14,0.0
53275.0,STARLINK-4179,PAYLOAD,2022-08-12 14:00:01,15.73221586,0.0002708,53.2194,309.045,17.3485,270.4679,0.00041384,0.00057921,0.0,0 STARLINK-4179,1 53275U 22086AK  22224.58334491  .00057921  00000-0  41384-3 0  9996,2 53275  53.2194 309.0450 0002708  17.3485 270.4679 15.73221586  3620,6727.834,91.532,351.521,347.87699999999984,0.0
53275.0,STARLINK-4179,PAYLOAD,2022-08-12 22:00:01,15.73289599,0.0002626,53.2195,307.3942,15.6713,1.1817,-0.00010502,-0.00015394,0.0,0 STARLINK-4179,1 53275U 22086AK  22224.91668981 -.00015394  00000-0 -10502-3 0  9995,2 53275  53.2195 307.3942 0002626  15.6713   1.1817 15.73289599  1306,6727.64,91.528,351.271,347.73800000000006,0.0
53275.0,STARLINK-4179,PAYLOAD,2022-08-13 14:00:01,15.73175393,0.0002924,53.2195,304.0964,18.0672,176.7338,0.0003927,0.00054802,0.0,0 STARLINK-4179,1 53275U 22086AK  22225.58334491  .00054802  00000-0  39270-3 0  9993,2 53275  53.2195 304.0964 0002924  18.0672 176.7338 15.73175393  1309,6727.965,91.535,351.798,347.86300000000006,0.0
53275.0,STARLINK-4179,PAYLOAD,2022-08-13 22:00:00,15.7323238,0.0002745,53.219,302.4456,16.8444,266.8767,-0.00066022,-0.00092417,0.0,0 STARLINK-4179,1 53275U 22086AK  22225.91667824 -.00092417  00000-0 -66022-3 0  9990,2 53275  53.2190 302.4456 0002745  16.8444 266.8767 15.73232380  1303,6727.803000000001,91.531,351.515,347.821,0.0
53275.0,STARLINK-4179,PAYLOAD,2022-08-14 06:00:02,15.73176131,0.000259,53.2183,300.7922,17.2744,355.4379,0.00039824,0.00055589,0.0,0 STARLINK-4179,1 53275U 22086AK  22226.25002315  .00055589  00000-0  39824-3 0  9993,2 53275  53.2183 300.7922 0002590  17.2744 355.4379 15.73176131  3891,6727.9630000000025,91.535,351.571,348.086,0.0
53275.0,STARLINK-4179,PAYLOAD,2022-08-14 14:00:01,15.73231687,0.0002912,53.2188,299.1483,14.0955,87.5787,-0.00019287,-0.00027645,0.0,0 STARLINK-4179,1 53275U 22086AK  22226.58334491 -.00027645  00000-0 -19287-3 0  9997,2 53275  53.2188 299.1483 0002912  14.0955  87.5787 15.73231687  1304,6727.805,91.531,351.629,347.711,0.0
53275.0,STARLINK-4179,PAYLOAD,2022-08-14 22:00:00,15.73209217,0.0002813999999999,53.2189,297.4972,13.0701,177.5648,9.7667e-05,0.00013113,0.0,0 STARLINK-4179,1 53275U 22086AK  22226.91667824  .00013113  00000-0  97667-4 0  9995,2 53275  53.2189 297.4972 0002814  13.0701 177.5648 15.73209217  1308,6727.869000000002,91.533,351.62699999999984,347.841,0.0
53275.0,STARLINK-4179,PAYLOAD,2022-08-15 14:00:01,15.73160045,0.0003177,53.219,294.1997,19.0396,349.4517,0.00040748,0.00056867,0.0,0 STARLINK-4179,1 53275U 22086AK  22227.58334491  .00056867  00000-0  40748-3 0  9990,2 53275  53.2190 294.1997 0003177  19.0396 349.4517 15.73160045  1300,6728.009,91.536,352.01199999999994,347.737,0.0
53275.0,STARLINK-4179,PAYLOAD,2022-08-15 22:00:00,15.73194679,0.0002959,53.2187,292.5486,16.8155,80.5845,-0.00037093,-0.00052358,0.0,0 STARLINK-4179,1 53275U 22086AK  22227.91667824 -.00052358  00000-0 -37093-3 0  9998,2 53275  53.2187 292.5486 0002959  16.8155  80.5845 15.73194679  4159,6727.91,91.533,351.766,347.785,0.0
53275.0,STARLINK-4179,PAYLOAD,2022-08-16 06:00:02,15.73180248,0.0002911,53.2187,290.8992,18.0655,168.2982,0.00020822,0.0002868,0.0,0 STARLINK-4179,1 53275U 22086AK  22228.25002315  .00028680  00000-0  20822-3 0  9995,2 53275  53.2187 290.8992 0002911  18.0655 168.2982 15.73180248  4208,6727.951,91.534,351.775,347.858,0.0
53275.0,STARLINK-4179,PAYLOAD,2022-08-16 14:00:01,15.7317385,0.0003232,53.2185,289.2516,17.0923,258.1241,0.00055447,0.00077846,0.0,0 STARLINK-4179,1 53275U 22086AK  22228.58334491  .00077846  00000-0  55447-3 0  9993,2 53275  53.2185 289.2516 0003232  17.0923 258.1241 15.73173850  1300,6727.97,91.535,352.009,347.66,0.0
53275.0,STARLINK-4179,PAYLOAD,2022-08-16 22:00:00,15.73237269,0.0003035,53.2187,287.6002,16.6262,347.5232,1.2828e-05,1.18e-05,0.0,0 STARLINK-4179,1 53275U 22086AK  22228.91667824  .00001180  00000-0  12828-4 0  9994,2 53275  53.2187 287.6002 0003035  16.6262 347.5232 15.73237269  1304,6727.7890000000025,91.531,351.696,347.612,0.0
53275.0,STARLINK-4179,PAYLOAD,2022-08-17 14:00:01,15.73242648,0.0003272,53.2185,284.3007,13.8188,168.268,-0.00044001,-0.00062054,0.0,0 STARLINK-4179,1 53275U 22086AK  22229.58334491 -.00062054  00000-0 -44001-3 0  9995,2 53275  53.2185 284.3007 0003272  13.8188 168.2680 15.73242648  4417,6727.774,91.531,351.84,347.43699999999984,0.0
53275.0,STARLINK-4179,PAYLOAD,2022-08-18 14:00:01,15.73252514,0.0003318,53.2185,279.3546,9.8062,79.125,-5.4521e-05,-8.288e-05,0.0,0 STARLINK-4179,1 53275U 22086AK  22230.58334491 -.00008288  00000-0 -54521-4 0  9995,2 53275  53.2185 279.3546 0003318   9.8062  79.1250 15.73252514  1307,6727.745,91.53,351.843,347.37800000000016,0.0
53275.0,STARLINK-4179,PAYLOAD,2022-08-18 22:00:00,15.73236639,0.0003138,53.2188,277.7028,6.9109,171.0135,-0.00027709,-0.00039401,0.0,0 STARLINK-4179,1 53275U 22086AK  22230.91667824 -.00039401  00000-0 -27709-3 0  9999,2 53275  53.2188 277.7028 0003138   6.9109 171.0135 15.73236639  4629,6727.791,91.531,351.767,347.545,0.0
53275.0,STARLINK-4179,PAYLOAD,2022-08-19 14:00:01,15.73132674,0.0003458999999999,53.2188,274.406,8.6447,347.1718,0.00026616,0.00036797,0.0,0 STARLINK-4179,1 53275U 22086AK  22231.58334491  .00036797  00000-0  26616-3 0  9993,2 53275  53.2188 274.4060 0003459   8.6447 347.1718 15.73132674  1308,6728.087,91.537,352.279,347.625,0.0
